{"fetched_at":"2026-07-13T07:47:59.900Z","source":"https://celestrak.org/NORAD/elements/gp.php?GROUP=spire&FORMAT=JSON","constellation":"spire","records":[{"OBJECT_NAME":"LEMUR-2-MYRA","OBJECT_ID":"2025-276EC","EPOCH":"2026-07-12T17:39:39.104064","CLASSIFICATION_TYPE":"U","MEAN_MOTION":15.0057208,"ECCENTRICITY":0.0018605,"INCLINATION":97.5226,"RA_OF_ASC_NODE":263.7829,"ARG_OF_PERICENTER":61.6382,"MEAN_ANOMALY":298.6715,"EPHEMERIS_TYPE":0,"NORAD_CAT_ID":66787,"ELEMENT_SET_NO":999,"REV_AT_EPOCH":3404,"BSTAR":0.00029064,"MEAN_MOTION_DOT":0.00003624,"MEAN_MOTION_DDOT":0},{"OBJECT_NAME":"LEMUR-2 FIKRETDENGIZ","OBJECT_ID":"2026-004A","EPOCH":"2026-07-12T13:06:21.144384","CLASSIFICATION_TYPE":"U","MEAN_MOTION":14.88505387,"ECCENTRICITY":0.0010323,"INCLINATION":97.8023,"RA_OF_ASC_NODE":191.7179,"ARG_OF_PERICENTER":63.2919,"MEAN_ANOMALY":296.9354,"EPHEMERIS_TYPE":0,"NORAD_CAT_ID":67363,"ELEMENT_SET_NO":999,"REV_AT_EPOCH":2705,"BSTAR":0.00026918,"MEAN_MOTION_DOT":0.00002449,"MEAN_MOTION_DDOT":0},{"OBJECT_NAME":"TWILIGHT-1 OBJECT B","OBJECT_ID":"2026-004B","EPOCH":"2026-07-12T12:21:08.778816","CLASSIFICATION_TYPE":"U","MEAN_MOTION":14.87787971,"ECCENTRICITY":0.00099096,"INCLINATION":97.8073,"RA_OF_ASC_NODE":191.6894,"ARG_OF_PERICENTER":53.6882,"MEAN_ANOMALY":306.5248,"EPHEMERIS_TYPE":0,"NORAD_CAT_ID":67364,"ELEMENT_SET_NO":999,"REV_AT_EPOCH":2705,"BSTAR":0.00011075664,"MEAN_MOTION_DOT":0.00000957,"MEAN_MOTION_DDOT":0},{"OBJECT_NAME":"LEMUR-2-MARIO-SOUSA","OBJECT_ID":"2026-004C","EPOCH":"2026-07-12T14:14:40.568640","CLASSIFICATION_TYPE":"U","MEAN_MOTION":14.88713778,"ECCENTRICITY":0.0009974,"INCLINATION":97.7995,"RA_OF_ASC_NODE":191.7596,"ARG_OF_PERICENTER":64.2837,"MEAN_ANOMALY":295.9409,"EPHEMERIS_TYPE":0,"NORAD_CAT_ID":67365,"ELEMENT_SET_NO":999,"REV_AT_EPOCH":2707,"BSTAR":0.00026743,"MEAN_MOTION_DOT":0.00002445,"MEAN_MOTION_DDOT":0},{"OBJECT_NAME":"LEMUR-2-SONNENBLUME","OBJECT_ID":"2026-004E","EPOCH":"2026-07-12T11:04:29.547840","CLASSIFICATION_TYPE":"U","MEAN_MOTION":14.88444773,"ECCENTRICITY":0.00095428,"INCLINATION":97.7992,"RA_OF_ASC_NODE":191.6035,"ARG_OF_PERICENTER":66.1852,"MEAN_ANOMALY":294.0364,"EPHEMERIS_TYPE":0,"NORAD_CAT_ID":67367,"ELEMENT_SET_NO":999,"REV_AT_EPOCH":2705,"BSTAR":0.00017609793,"MEAN_MOTION_DOT":0.0000158,"MEAN_MOTION_DDOT":0},{"OBJECT_NAME":"LEMUR-2-WOBLER","OBJECT_ID":"2026-004F","EPOCH":"2026-07-12T14:03:17.181792","CLASSIFICATION_TYPE":"U","MEAN_MOTION":14.88686453,"ECCENTRICITY":0.0009638,"INCLINATION":97.8046,"RA_OF_ASC_NODE":191.8741,"ARG_OF_PERICENTER":57.3201,"MEAN_ANOMALY":302.8944,"EPHEMERIS_TYPE":0,"NORAD_CAT_ID":67368,"ELEMENT_SET_NO":999,"REV_AT_EPOCH":2707,"BSTAR":0.00020439,"MEAN_MOTION_DOT":0.00001854,"MEAN_MOTION_DDOT":0},{"OBJECT_NAME":"LEMUR-2-GRAM-E-SUE","OBJECT_ID":"2026-004H","EPOCH":"2026-07-12T13:51:41.241888","CLASSIFICATION_TYPE":"U","MEAN_MOTION":14.88582014,"ECCENTRICITY":0.0008718,"INCLINATION":97.7985,"RA_OF_ASC_NODE":191.7344,"ARG_OF_PERICENTER":68.0241,"MEAN_ANOMALY":292.1901,"EPHEMERIS_TYPE":0,"NORAD_CAT_ID":67370,"ELEMENT_SET_NO":999,"REV_AT_EPOCH":2707,"BSTAR":0.00014278,"MEAN_MOTION_DOT":0.00001275,"MEAN_MOTION_DDOT":0},{"OBJECT_NAME":"LEMUR-2-KATIE","OBJECT_ID":"2026-004AA","EPOCH":"2026-07-12T12:53:54.394368","CLASSIFICATION_TYPE":"U","MEAN_MOTION":14.90236221,"ECCENTRICITY":0.00037005,"INCLINATION":97.8041,"RA_OF_ASC_NODE":192.2374,"ARG_OF_PERICENTER":40.2246,"MEAN_ANOMALY":319.9245,"EPHEMERIS_TYPE":0,"NORAD_CAT_ID":67387,"ELEMENT_SET_NO":999,"REV_AT_EPOCH":2708,"BSTAR":0.00031243607,"MEAN_MOTION_DOT":0.00002975,"MEAN_MOTION_DDOT":0},{"OBJECT_NAME":"LEMUR-2-HCS-BAZUS","OBJECT_ID":"2026-004AB","EPOCH":"2026-07-12T12:51:34.328736","CLASSIFICATION_TYPE":"U","MEAN_MOTION":14.90252616,"ECCENTRICITY":0.00032174,"INCLINATION":97.8037,"RA_OF_ASC_NODE":192.2146,"ARG_OF_PERICENTER":39.3567,"MEAN_ANOMALY":320.7884,"EPHEMERIS_TYPE":0,"NORAD_CAT_ID":67388,"ELEMENT_SET_NO":999,"REV_AT_EPOCH":2708,"BSTAR":0.00016705577,"MEAN_MOTION_DOT":0.00001566,"MEAN_MOTION_DDOT":0}]}
